[
  {
    "OBJECT_NAME": "STARLINK-3333",
    "OBJECT_ID": "22001C",
    "EPOCH": "2025-11-11T07:32:30.182208",
    "MEAN_MOTION": 15.08845022,
    "ECCENTRICITY": 0.0001479,
    "INCLINATION": 53.2184,
    "RA_OF_ASC_NODE": 330.5282,
    "ARG_OF_PERICENTER": 98.1486,
    "MEAN_ANOMALY": 261.9675,
    "EPHEMERIS_TYPE": 0,
    "CLASSIFICATION_TYPE": "U",
    "NORAD_CAT_ID": 50805,
    "ELEMENT_SET_NO": 999,
    "REV_AT_EPOCH": 21267,
    "BSTAR": 1.3508000000000002e-05,
    "MEAN_MOTION_DOT": -7.3e-07,
    "MEAN_MOTION_DDOT": 0.0,
    "TLE_LINE1": "1 50805U 22001C   25315.31423822 -.00000073  00000+0  13508-4 0  9995",
    "TLE_LINE2": "2 50805  53.2184 330.5282 0001479  98.1486 261.9675 15.08845022212672",
    "COMMENT": "Grouped by shell and plane from TLE"
  },
  {
    "OBJECT_NAME": "STARLINK-3335",
    "OBJECT_ID": "22001D",
    "EPOCH": "2025-11-11T07:27:12.156768",
    "MEAN_MOTION": 15.0883934,
    "ECCENTRICITY": 0.0001465,
    "INCLINATION": 53.2175,
    "RA_OF_ASC_NODE": 330.5445,
    "ARG_OF_PERICENTER": 83.9511,
    "MEAN_ANOMALY": 276.1648,
    "EPHEMERIS_TYPE": 0,
    "CLASSIFICATION_TYPE": "U",
    "NORAD_CAT_ID": 50806,
    "ELEMENT_SET_NO": 999,
    "REV_AT_EPOCH": 21267,
    "BSTAR": 8.660400000000001e-05,
    "MEAN_MOTION_DOT": 1.091e-05,
    "MEAN_MOTION_DDOT": 0.0,
    "TLE_LINE1": "1 50806U 22001D   25315.31055737  .00001091  00000+0  86604-4 0  9999",
    "TLE_LINE2": "2 50806  53.2175 330.5445 0001465  83.9511 276.1648 15.08839340212674",
    "COMMENT": "Grouped by shell and plane from TLE"
  },
  {
    "OBJECT_NAME": "STARLINK-3355",
    "OBJECT_ID": "22001F",
    "EPOCH": "2025-11-11T07:16:36.442848",
    "MEAN_MOTION": 15.08843528,
    "ECCENTRICITY": 0.0001345,
    "INCLINATION": 53.2175,
    "RA_OF_ASC_NODE": 330.5762,
    "ARG_OF_PERICENTER": 91.186,
    "MEAN_ANOMALY": 268.9286,
    "EPHEMERIS_TYPE": 0,
    "CLASSIFICATION_TYPE": "U",
    "NORAD_CAT_ID": 50808,
    "ELEMENT_SET_NO": 999,
    "REV_AT_EPOCH": 21267,
    "BSTAR": 0.00016057,
    "MEAN_MOTION_DOT": 2.269e-05,
    "MEAN_MOTION_DDOT": 0.0,
    "TLE_LINE1": "1 50808U 22001F   25315.30319957  .00002269  00000+0  16057-3 0  9999",
    "TLE_LINE2": "2 50808  53.2175 330.5762 0001345  91.1860 268.9286 15.08843528212673",
    "COMMENT": "Grouped by shell and plane from TLE"
  },
  {
    "OBJECT_NAME": "STARLINK-3232",
    "OBJECT_ID": "22001G",
    "EPOCH": "2025-11-11T07:21:54.316224",
    "MEAN_MOTION": 15.08839116,
    "ECCENTRICITY": 0.0001433,
    "INCLINATION": 53.2172,
    "RA_OF_ASC_NODE": 330.5595,
    "ARG_OF_PERICENTER": 89.9639,
    "MEAN_ANOMALY": 270.1517,
    "EPHEMERIS_TYPE": 0,
    "CLASSIFICATION_TYPE": "U",
    "NORAD_CAT_ID": 50809,
    "ELEMENT_SET_NO": 999,
    "REV_AT_EPOCH": 21267,
    "BSTAR": 7.9336e-05,
    "MEAN_MOTION_DOT": 9.75e-06,
    "MEAN_MOTION_DDOT": 0.0,
    "TLE_LINE1": "1 50809U 22001G   25315.30687866  .00000975  00000+0  79336-4 0  9999",
    "TLE_LINE2": "2 50809  53.2172 330.5595 0001433  89.9639 270.1517 15.08839116212672",
    "COMMENT": "Grouped by shell and plane from TLE"
  },
  {
    "OBJECT_NAME": "STARLINK-3338",
    "OBJECT_ID": "22001K",
    "EPOCH": "2025-11-11T06:23:37.704768",
    "MEAN_MOTION": 15.08847761,
    "ECCENTRICITY": 0.0001406,
    "INCLINATION": 53.2177,
    "RA_OF_ASC_NODE": 330.8454,
    "ARG_OF_PERICENTER": 102.4798,
    "MEAN_ANOMALY": 257.6351,
    "EPHEMERIS_TYPE": 0,
    "CLASSIFICATION_TYPE": "U",
    "NORAD_CAT_ID": 50812,
    "ELEMENT_SET_NO": 999,
    "REV_AT_EPOCH": 21266,
    "BSTAR": 0.0,
    "MEAN_MOTION_DOT": -5.14e-06,
    "MEAN_MOTION_DDOT": 0.0,
    "TLE_LINE1": "1 50812U 22001K   25315.26640862 -.00000514  00000+0 -14229-4 0  9994",
    "TLE_LINE2": "2 50812  53.2177 330.8454 0001406 102.4798 257.6351 15.08847761212665",
    "COMMENT": "Grouped by shell and plane from TLE"
  },
  {
    "OBJECT_NAME": "STARLINK-4021",
    "OBJECT_ID": "22083T",
    "EPOCH": "2025-11-11T06:53:29.738400",
    "MEAN_MOTION": 15.08849101,
    "ECCENTRICITY": 0.0001457,
    "INCLINATION": 53.2179,
    "RA_OF_ASC_NODE": 335.852,
    "ARG_OF_PERICENTER": 103.7558,
    "MEAN_ANOMALY": 256.3597,
    "EPHEMERIS_TYPE": 0,
    "CLASSIFICATION_TYPE": "U",
    "NORAD_CAT_ID": 53149,
    "ELEMENT_SET_NO": 999,
    "REV_AT_EPOCH": 18348,
    "BSTAR": 0.00011703,
    "MEAN_MOTION_DOT": 1.575e-05,
    "MEAN_MOTION_DDOT": 0.0,
    "TLE_LINE1": "1 53149U 22083T   25315.28714975  .00001575  00000+0  11703-3 0  9998",
    "TLE_LINE2": "2 53149  53.2179 335.8520 0001457 103.7558 256.3597 15.08849101183481",
    "COMMENT": "Grouped by shell and plane from TLE"
  },
  {
    "OBJECT_NAME": "STARLINK-4038",
    "OBJECT_ID": "22083U",
    "EPOCH": "2025-11-11T08:00:03.000384",
    "MEAN_MOTION": 15.17740612,
    "ECCENTRICITY": 7.59e-05,
    "INCLINATION": 53.2185,
    "RA_OF_ASC_NODE": 335.0755,
    "ARG_OF_PERICENTER": 87.184,
    "MEAN_ANOMALY": 239.566,
    "EPHEMERIS_TYPE": 0,
    "CLASSIFICATION_TYPE": "U",
    "NORAD_CAT_ID": 53150,
    "ELEMENT_SET_NO": 999,
    "REV_AT_EPOCH": 576,
    "BSTAR": 0.003915699999999999,
    "MEAN_MOTION_DOT": 0.00080567,
    "MEAN_MOTION_DDOT": 0.0,
    "TLE_LINE1": "1 53150U 22083U   25315.33336806  .00080567  00000+0  39157-2 0  9999",
    "TLE_LINE2": "2 53150  53.2185 335.0755 0000759  87.1840 239.5660 15.17740612  5760",
    "COMMENT": "Grouped by shell and plane from TLE"
  },
  {
    "OBJECT_NAME": "STARLINK-4040",
    "OBJECT_ID": "22083V",
    "EPOCH": "2025-11-11T07:07:59.246400",
    "MEAN_MOTION": 15.08844189,
    "ECCENTRICITY": 0.0001413,
    "INCLINATION": 53.2179,
    "RA_OF_ASC_NODE": 335.6038,
    "ARG_OF_PERICENTER": 93.8119,
    "MEAN_ANOMALY": 266.3035,
    "EPHEMERIS_TYPE": 0,
    "CLASSIFICATION_TYPE": "U",
    "NORAD_CAT_ID": 53151,
    "ELEMENT_SET_NO": 999,
    "REV_AT_EPOCH": 18348,
    "BSTAR": 7.0078e-05,
    "MEAN_MOTION_DOT": 8.28e-06,
    "MEAN_MOTION_DDOT": 0.0,
    "TLE_LINE1": "1 53151U 22083V   25315.29721350  .00000828  00000+0  70078-4 0  9998",
    "TLE_LINE2": "2 53151  53.2179 335.6038 0001413  93.8119 266.3035 15.08844189183489",
    "COMMENT": "Grouped by shell and plane from TLE"
  },
  {
    "OBJECT_NAME": "STARLINK-4045",
    "OBJECT_ID": "22083W",
    "EPOCH": "2025-11-11T07:18:35.257536",
    "MEAN_MOTION": 15.08844292,
    "ECCENTRICITY": 0.00013,
    "INCLINATION": 53.2175,
    "RA_OF_ASC_NODE": 335.5706,
    "ARG_OF_PERICENTER": 91.4789,
    "MEAN_ANOMALY": 268.6353,
    "EPHEMERIS_TYPE": 0,
    "CLASSIFICATION_TYPE": "U",
    "NORAD_CAT_ID": 53152,
    "ELEMENT_SET_NO": 999,
    "REV_AT_EPOCH": 18348,
    "BSTAR": 0.00011639,
    "MEAN_MOTION_DOT": 1.565e-05,
    "MEAN_MOTION_DDOT": 0.0,
    "TLE_LINE1": "1 53152U 22083W   25315.30457474  .00001565  00000+0  11639-3 0  9990",
    "TLE_LINE2": "2 53152  53.2175 335.5706 0001300  91.4789 268.6353 15.08844292183482",
    "COMMENT": "Grouped by shell and plane from TLE"
  },
  {
    "OBJECT_NAME": "STARLINK-4098",
    "OBJECT_ID": "22083X",
    "EPOCH": "2025-11-11T07:02:41.264160",
    "MEAN_MOTION": 15.08844704,
    "ECCENTRICITY": 0.0001322,
    "INCLINATION": 53.2173,
    "RA_OF_ASC_NODE": 335.6218,
    "ARG_OF_PERICENTER": 94.6496,
    "MEAN_ANOMALY": 265.4648,
    "EPHEMERIS_TYPE": 0,
    "CLASSIFICATION_TYPE": "U",
    "NORAD_CAT_ID": 53153,
    "ELEMENT_SET_NO": 999,
    "REV_AT_EPOCH": 18348,
    "BSTAR": 9.2529e-05,
    "MEAN_MOTION_DOT": 1.185e-05,
    "MEAN_MOTION_DDOT": 0.0,
    "TLE_LINE1": "1 53153U 22083X   25315.29353315  .00001185  00000+0  92529-4 0  9994",
    "TLE_LINE2": "2 53153  53.2173 335.6218 0001322  94.6496 265.4648 15.08844704183484",
    "COMMENT": "Grouped by shell and plane from TLE"
  },
  {
    "OBJECT_NAME": "STARLINK-4077",
    "OBJECT_ID": "22083Y",
    "EPOCH": "2025-11-11T07:13:17.712480",
    "MEAN_MOTION": 15.08848994,
    "ECCENTRICITY": 0.0001907,
    "INCLINATION": 53.2204,
    "RA_OF_ASC_NODE": 335.5882,
    "ARG_OF_PERICENTER": 98.2502,
    "MEAN_ANOMALY": 261.8706,
    "EPHEMERIS_TYPE": 0,
    "CLASSIFICATION_TYPE": "U",
    "NORAD_CAT_ID": 53154,
    "ELEMENT_SET_NO": 999,
    "REV_AT_EPOCH": 18348,
    "BSTAR": 0.0,
    "MEAN_MOTION_DOT": -1.343e-05,
    "MEAN_MOTION_DDOT": 0.0,
    "TLE_LINE1": "1 53154U 22083Y   25315.30089945 -.00001343  00000+0 -66294-4 0  9990",
    "TLE_LINE2": "2 53154  53.2204 335.5882 0001907  98.2502 261.8706 15.08848994183483",
    "COMMENT": "Grouped by shell and plane from TLE"
  },
  {
    "OBJECT_NAME": "STARLINK-4088",
    "OBJECT_ID": "22083Z",
    "EPOCH": "2025-11-11T06:52:05.685888",
    "MEAN_MOTION": 15.08839285,
    "ECCENTRICITY": 0.0001375,
    "INCLINATION": 53.218,
    "RA_OF_ASC_NODE": 335.6556,
    "ARG_OF_PERICENTER": 95.2406,
    "MEAN_ANOMALY": 264.8744,
    "EPHEMERIS_TYPE": 0,
    "CLASSIFICATION_TYPE": "U",
    "NORAD_CAT_ID": 53155,
    "ELEMENT_SET_NO": 999,
    "REV_AT_EPOCH": 18412,
    "BSTAR": 3.2290000000000004e-05,
    "MEAN_MOTION_DOT": 2.26e-06,
    "MEAN_MOTION_DDOT": 0.0,
    "TLE_LINE1": "1 53155U 22083Z   25315.28617692  .00000226  00000+0  32290-4 0  9990",
    "TLE_LINE2": "2 53155  53.2180 335.6556 0001375  95.2406 264.8744 15.08839285184125",
    "COMMENT": "Grouped by shell and plane from TLE"
  },
  {
    "OBJECT_NAME": "STARLINK-4087",
    "OBJECT_ID": "22083AA",
    "EPOCH": "2025-11-11T06:36:10.405152",
    "MEAN_MOTION": 15.08840253,
    "ECCENTRICITY": 0.0001367,
    "INCLINATION": 53.2177,
    "RA_OF_ASC_NODE": 335.5782,
    "ARG_OF_PERICENTER": 89.778,
    "MEAN_ANOMALY": 270.3369,
    "EPHEMERIS_TYPE": 0,
    "CLASSIFICATION_TYPE": "U",
    "NORAD_CAT_ID": 53156,
    "ELEMENT_SET_NO": 999,
    "REV_AT_EPOCH": 18348,
    "BSTAR": 1.4476e-05,
    "MEAN_MOTION_DOT": -5.8e-07,
    "MEAN_MOTION_DDOT": 0.0,
    "TLE_LINE1": "1 53156U 22083AA  25315.27512043 -.00000058  00000+0  14476-4 0  9994",
    "TLE_LINE2": "2 53156  53.2177 335.5782 0001367  89.7780 270.3369 15.08840253183486",
    "COMMENT": "Grouped by shell and plane from TLE"
  }
]